#dP2021  6 24  6  0  0.00000000      96 __u+U ITR00 EXT  IAC
## 2163 367200.00000000   900.00000000 59389 0.2500000000000
+  116   C06C07C08C09C10C11C12C13C14C16C19C20C21C22C23C24C25
+        C26C27C28C29C30C32C33C34C35C36C37C38C39C40C41C42C43
+        C44C45C46E01E02E03E04E05E07E08E09E11E12E13E14E15E18
+        E19E21E24E25E26E27E30E31E33E36G01G02G03G04G05G06G07
+        G08G09G10G12G13G14G15G16G17G18G19G20G21G22G23G24G25
+        G26G27G28G29G30G31G32J01J02J03R01R02R03R04R05R07R08
+        R09R11R12R13R14R15R16R17R18R19R20R21R22R24  0  0  0
++        10 14 12  9 12  9  9 10  8  9  7  9  8  9  8  7  8
++         9  8 10  8  9  9  8  8  9  9  9 10  8 10  8  8  8
++         9 10  9  8  7  9  8  8  8  7  9  9  8  8  7  9  8
++         8  9  8  9  8  8  8  9  9  8  7  7 13  7  8  8  8
++         7  8 12  7  8  8  7  7  7  7  7  8  8  7  9  7  8
++         8  8  8  7  7  8  9 10  9  9  8  8  7  8  9 10  9
++        10  9  7  9  7  9  7  8  8  8  7  9  9  9  0  0  0
%c M  cc GPS ccc cccc cccc cccc cccc ccccc ccccc ccccc ccccc
%c cc cc ccc ccc cccc cccc cccc cccc ccccc ccccc ccccc ccccc
%f  0.0000000  0.000000000  0.00000000000  0.000000000000000
%f  0.0000000  0.000000000  0.00000000000  0.000000000000000
%i    0    0    0    0      0      0      0      0         0
%i    0    0    0    0      0      0      0      0         0
/* IAC                                ULTRA-RAPID PREDICTION
/* S/V CLOCKS ARE ALIGNED TO GNSS TIME                      
/* G:C1WC2W R:C1PC2P E:C1XC5X C:C2IC6I J:C1CC2S             
/* PCV:IGS14_2148 OL/AL:FES2004  NONE     YN ORB:CoN CLK:CoN
*  2021 06 25  4 30  0.00000000
PC06 -14741.870802  20503.006392 -33345.879118    544.422555
PC07 -21693.553914  34631.137954   9459.126627     37.195899
PC08  -5525.490523  35191.640018  22959.825288   -897.242390
PC09   2076.740542  25940.822745 -32785.369098    422.640290
PC10  -9697.617589  35334.155133  20665.056278    -25.960207
PC11  -1465.924494  15874.932195  22961.994095    419.756973
PC12 -19288.352298   5479.354281  19424.607245    832.734124
PC13   2044.650187  40336.982435  12645.626933    312.629979
PC14 -11239.266945  21073.684480 -14356.087691    867.709112
PC16 -11470.550989  21524.945680 -34279.104099   -920.845927
PC19   1605.159780 -18967.868325  20442.123078    885.086652
PC20  17785.958196 -20141.628138   7617.124878   -865.063974
PC21 -24156.534055   9211.398859  10490.767465   -935.097873
PC22 -16009.599055  -6798.016162  21820.985474   -949.129322
PC23  14015.300077  17491.712134  16632.399342   -947.187733
PC24  -8945.392999  21179.047399 -15831.437618   -908.585982
PC25   4777.340286  27477.412459   1215.094759   -895.784335
PC26 -15778.019791   4003.651406 -22672.257922    887.885262
PC27  24810.123497   1390.930881 -12707.757283    553.847804
PC28  23695.870265  13998.322811   4636.329352    -58.287695
PC29  -9328.889854 -18007.590943 -19181.333574    410.723601
PC30  11487.408495 -12105.904434 -22372.286362    471.849700
PC32  24097.578726  -9430.258569 -10448.046088   -924.324869
PC33  -1548.076704  18996.251450 -20367.212812   -938.287466
PC34 -10793.631946  12510.348357  22476.682116   -642.720212
PC35 -23999.439311 -13377.389772  -4992.278479   -217.372616
PC36  -3864.117006 -27626.078572   -818.284113   -728.929769
PC37  16030.035130  -2527.812413  22724.126138   -871.131065
PC38  -5243.309172  36413.486646  20727.819354    157.471094
PC39  -8540.047729  22718.524708 -34465.464798     31.982739
PC40 -19100.373058  32358.631482  19005.232072    174.284721
PC41  15825.899911   6991.062998 -21844.192479   -951.131818
PC42 -18297.955009  19908.458271  -6810.040793   -914.953077
PC43   8638.590172  18103.738948  19379.160628   -791.961923
PC44 -24981.042363   -686.010422  12438.621145    256.752185
PC45 -13996.140330 -17348.174957 -16770.497674    476.293406
PC46   8239.704301 -21916.013057  15171.722233    208.652989
PE01  -4174.320056 -23144.168931 -17970.863293  -1136.469855
PE02   4270.238877  23064.908466  18061.859980    228.463290
PE03  11707.598461  14535.626559 -22973.224269   -445.659725
PE04 -27174.991424  -3504.184463  11205.642465   -799.649268
PE05 -10916.312194  17221.444718 -21448.066587   -270.263884
PE07  26908.627005  -9850.705231   7459.273577   -553.957127
PE08  27340.173037   3058.114168 -10937.775100   5980.582242
PE09 -26774.763491  10017.791157  -7632.671817   5622.176444
PE11 -16229.314215   5227.102557  24183.453745   5806.542097
PE12 -22675.530497 -14042.982085  12849.512002   5143.195869
PE13  16421.303295  -4830.149753 -24150.973667    418.188117
PE14  14677.721355  13740.555162  15186.777575  -1477.950861
PE15  22688.467629  13943.719793 -12919.090388    806.966548
PE18  -6315.405225 -19976.839176 -23347.976802  -1619.111598
PE19  -9178.106970 -15250.568225  23661.139103    310.773276
PE21   9335.134916 -28041.668019  -1662.399023   -672.600502
PE24 -18324.186168  16021.081607 -16865.297784   -973.152334
PE25  -9458.375888  28009.855884   1474.428884   -537.980761
PE26    -62.416673 -21266.968331 -20590.878576   1653.873757
PE27  18060.401920 -16897.020239  16266.660190    -61.655097
PE30  15730.300673   5309.744624  24500.404395   2836.083096
PE31 -16100.084864  -4088.546208 -24490.058207   -482.570130
PE33 -15583.806389 -24471.002850  -5896.347786   -468.648498
PE36   -508.425360  20708.630356  21136.784030   -225.603343
PG01 -17625.370616  -6726.131306  18571.251552    647.982270
PG02  13578.602476  22769.842254   1549.289394   -614.929458
PG03 -17694.609317   3684.240627  19332.394087   -201.652415
PG04 -26568.609669   -834.845901   -807.679615   -200.828358
PG05  11898.487470  10027.450489 -21671.712542    -45.965277
PG06   4944.770507  23792.856578  10708.782017     31.259376
PG07 -12526.280394   8796.931561 -21322.514035    186.810348
PG08 -24158.730335  -6493.508080  -9379.379982    -26.393282
PG09 -22762.283727   7945.192939 -11232.435660   -352.732459
PG10  11026.441527 -23689.195011   3977.347636   -149.148261
PG12  17416.872819  -1451.878602  19707.002474    -59.686533
PG13  17857.447890  13094.053813 -14902.331577    149.268450
PG14 -12116.099326  23277.974856   3960.648284     62.120197
PG15  24793.352399   4530.541904  -9283.506731   -140.029804
PG16  -6411.246708 -15280.328902 -20895.939084   -346.726484
PG17 -10331.036287  13252.267699  20996.750545    463.791381
PG18  10207.816258 -12109.399370 -21322.705843    344.974547
PG19   -339.674976  14707.086600  21833.297086     17.848145
PG20   9668.719826  14722.045470 -19952.334682    520.828600
PG21 -19738.766265 -12635.914528  13664.253715    127.227441
PG22 -14806.439780  -5713.890750  21477.874143   -579.858517
PG23  16759.581065 -19225.262811  -7331.343515     92.871087
PG24  19610.230264  10435.969790  14596.378521    147.754454
PG25  18562.018514 -13557.279659  12806.929800    162.020268
PG26    548.949747 -22430.070401 -14056.781526    102.658544
PG27 -16023.060064 -12250.232133 -17649.306841   -152.668191
PG28  -8220.551824  23275.984957  10597.450548    548.907302
PG29  23851.540431  -4951.997915 -10700.087552   -369.745268
PG30  -3341.272303  20212.967798 -16709.496899   -443.128454
PG31  -6118.145989 -24244.036377   8136.131076   -125.002015
PG32   6694.451244 -14793.064783  21103.941812     17.143336
PJ01 -36259.524046  19714.461348  -3793.395377   -402.366078
PJ02 -23266.532868  31368.363770 -11206.444977     -0.414888
PJ03 -26833.451415  23112.650559  28037.657259     -9.075763
PR01  23122.535531  -8507.120761  -6635.328381     81.383014
PR02  15558.541621 -14832.511940  13731.715626    483.623826
PR03  -1210.632072 -11493.887315  22780.983700     38.312884
PR04 -16927.761699  -1592.302325  19047.640722     92.832056
PR05 -23398.974033   9046.170627   4690.788391     74.177425
PR07   1768.737361  11219.285596 -22802.161460    -42.242244
PR08  17018.797157   1568.586764 -18869.428310    -59.675661
PR09  -5749.184647  22941.248280  -9440.067710     -0.377679
PR11   9232.140854  11748.668463  20682.257388    -15.179222
PR12  10794.934533  -8160.082471  21648.666711    239.975305
PR13   5916.742784 -22632.860398  10163.640467    -56.791071
PR14  -2537.472932 -24080.733332  -8038.293937     65.721819
PR15  -9292.915961 -11373.731815 -20833.533832    103.054355
PR16 -10604.231854   9688.804791 -21129.646191    -16.894648
PR17 -12052.092019 -16444.675904 -15302.533737    435.547757
PR18 -21290.540376 -14084.395437    652.021573     81.207073
PR19 -19425.170933  -5352.324524  15631.600563   -149.065003
PR20  -5028.551848   9117.681109  23284.301528    -51.433286
PR21  13056.203530  16599.728233  14318.615203   -219.063179
PR22  21374.481138  13721.668078  -1743.504934   -119.394434
PR24   4448.389238 -10041.034428 -23012.890777     47.870024
EOF
